{
    "links": {
        "self": "http://www.neowsapp.com/rest/v1/neo/3785716?api_key=iIulBulltgU6a56xZRHN4H3l9WmuAYTsLGpBGhQ2"
    },
    "id": "3785716",
    "neo_reference_id": "3785716",
    "name": "(2017 SK33)",
    "designation": "2017 SK33",
    "nasa_jpl_url": "http://ssd.jpl.nasa.gov/sbdb.cgi?sstr=3785716",
    "absolute_magnitude_h": 23.247,
    "estimated_diameter": {
        "kilometers": {
            "estimated_diameter_min": 0.0595874742,
            "estimated_diameter_max": 0.1332416428
        },
        "meters": {
            "estimated_diameter_min": 59.5874741604,
            "estimated_diameter_max": 133.2416428301
        },
        "miles": {
            "estimated_diameter_min": 0.0370259284,
            "estimated_diameter_max": 0.0827924928
        },
        "feet": {
            "estimated_diameter_min": 195.4969687243,
            "estimated_diameter_max": 437.1445114626
        }
    },
    "is_potentially_hazardous_asteroid": false,
    "close_approach_data": [
        {
            "close_approach_date": "2017-09-05",
            "close_approach_date_full": "2017-Sep-05 06:02",
            "epoch_date_close_approach": 1504591320000,
            "relative_velocity": {
                "kilometers_per_second": "12.9860983445",
                "kilometers_per_hour": "46749.9540401593",
                "miles_per_hour": "29048.6033867868"
            },
            "miss_distance": {
                "astronomical": "0.1166514964",
                "lunar": "45.3774320996",
                "kilometers": "17450815.393752668",
                "miles": "10843433.8689680984"
            },
            "orbiting_body": "Earth"
        }
    ],
    "orbital_data": {
        "orbit_id": "1",
        "orbit_determination_date": "2017-10-14 06:19:06",
        "first_observation_date": "2017-09-25",
        "last_observation_date": "2017-09-26",
        "data_arc_in_days": 1,
        "observations_used": 6,
        "orbit_uncertainty": "9",
        "minimum_orbit_intersection": ".0767609",
        "jupiter_tisserand_invariant": "4.441",
        "epoch_osculation": "2458022.5",
        "eccentricity": ".2719974588819579",
        "semi_major_axis": "1.487143313362499",
        "inclination": "23.65961291819849",
        "ascending_node_longitude": "166.6102394355481",
        "orbital_period": "662.41119100521",
        "perihelion_distance": "1.082644111134604",
        "perihelion_argument": "172.8984386495449",
        "aphelion_distance": "1.891642515590394",
        "perihelion_time": "2457993.628768128711",
        "mean_anomaly": "15.69062179926591",
        "mean_motion": ".543469079158671",
        "equinox": "J2000",
        "orbit_class": {
            "orbit_class_type": "AMO",
            "orbit_class_description": "Near-Earth asteroid orbits similar to that of 1221 Amor",
            "orbit_class_range": "1.017 AU < q (perihelion) < 1.3 AU"
        }
    },
    "is_sentry_object": false
}